start=new Date('2022-12-31T00:00:00.000Z').valueOf();
sats=[{"MEAN_MOTION_DDOT":"0.0000000000000","PERIOD":"95.593","APOAPSIS":"548.113","REF_FRAME":"TEME","LAUNCH_DATE":"2021-02-04","NORAD_CAT_ID":"47581","EPHEMERIS_TYPE":"0","CENTER_NAME":"EARTH","MEAN_MOTION_DOT":"0.00000391","OBJECT_TYPE":"PAYLOAD","BSTAR":"0.00004515300000","OBJECT_NAME":"STARLINK-1984","RA_OF_ASC_NODE":"193.4766","DECAY_DATE":null,"ARG_OF_PERICENTER":"84.9931","PERIAPSIS":"546.351","FILE":"3726810","GP_ID":"221786941","OBJECT_ID":"2021-009AK","ECCENTRICITY":"0.00012720","SEMIMAJOR_AXIS":"6925.367","MEAN_ELEMENT_THEORY":"SGP4","ELEMENT_SET_NO":"999","REV_AT_EPOCH":"10541","MEAN_ANOMALY":"275.1203","CLASSIFICATION_TYPE":"U","EPOCH":"2022-12-30T06:02:49.875360","RCS_SIZE":"LARGE","MEAN_MOTION":"15.06393875","TIME_SYSTEM":"UTC","TLE_LINE1":"1 47581U 21009AK  22364.25196615  .00000391  00000-0  45153-4 0  9994","SITE":"AFETR","COUNTRY_CODE":"US","TLE_LINE2":"2 47581  53.0537 193.4766 0001272  84.9931 275.1203 15.06393875105410","INCLINATION":"53.0537"},{"COUNTRY_CODE":"US","TLE_LINE1":"1 47582U 21009AL  22364.57080210  .00000644  00000-0  62126-4 0  9993","SITE":"AFETR","INCLINATION":"53.0528","TLE_LINE2":"2 47582  53.0528 212.0485 0001419  97.5727 262.5423 15.06386331105180","RCS_SIZE":"LARGE","EPOCH":"2022-12-30T13:41:57.301440","CLASSIFICATION_TYPE":"U","TIME_SYSTEM":"UTC","MEAN_MOTION":"15.06386331","ELEMENT_SET_NO":"999","MEAN_ANOMALY":"262.5423","REV_AT_EPOCH":"10518","OBJECT_ID":"2021-009AL","GP_ID":"221787191","MEAN_ELEMENT_THEORY":"SGP4","SEMIMAJOR_AXIS":"6925.390","ECCENTRICITY":"0.00014190","RA_OF_ASC_NODE":"212.0485","OBJECT_NAME":"STARLINK-1986","BSTAR":"0.00006212600000","FILE":"3726810","ARG_OF_PERICENTER":"97.5727","PERIAPSIS":"546.273","DECAY_DATE":null,"EPHEMERIS_TYPE":"0","OBJECT_TYPE":"PAYLOAD","MEAN_MOTION_DOT":"0.00000644","CENTER_NAME":"EARTH","LAUNCH_DATE":"2021-02-04","NORAD_CAT_ID":"47582","PERIOD":"95.593","MEAN_MOTION_DDOT":"0.0000000000000","REF_FRAME":"TEME","APOAPSIS":"548.238"},{"OBJECT_TYPE":"PAYLOAD","MEAN_MOTION_DOT":"-0.00000306","CENTER_NAME":"EARTH","EPHEMERIS_TYPE":"0","FILE":"3726810","PERIAPSIS":"546.178","ARG_OF_PERICENTER":"81.2411","DECAY_DATE":null,"RA_OF_ASC_NODE":"213.3414","OBJECT_NAME":"STARLINK-1987","BSTAR":"-0.00000162670000","REF_FRAME":"TEME","APOAPSIS":"548.238","PERIOD":"95.592","MEAN_MOTION_DDOT":"0.0000000000000","NORAD_CAT_ID":"47583","LAUNCH_DATE":"2021-02-04","TIME_SYSTEM":"UTC","MEAN_MOTION":"15.06401758","RCS_SIZE":"LARGE","EPOCH":"2022-12-30T06:47:55.433472","CLASSIFICATION_TYPE":"U","INCLINATION":"53.0546","TLE_LINE2":"2 47583  53.0546 213.3414 0001487  81.2411 278.8747 15.06401758105148","COUNTRY_CODE":"US","SITE":"AFETR","TLE_LINE1":"1 47583U 21009AM  22364.28328048 -.00000306  00000-0 -16267-5 0  9999","MEAN_ELEMENT_THEORY":"SGP4","SEMIMAJOR_AXIS":"6925.343","ECCENTRICITY":"0.00014870","OBJECT_ID":"2021-009AM","GP_ID":"221785439","REV_AT_EPOCH":"10514","MEAN_ANOMALY":"278.8747","ELEMENT_SET_NO":"999"},{"INCLINATION":"53.0527","TLE_LINE2":"2 47585  53.0527 212.0240 0001464  72.0220 288.0929 15.06394415105183","TLE_LINE1":"1 47585U 21009AP  22364.57447658  .00001682  00000-0  13180-3 0  9997","SITE":"AFETR","COUNTRY_CODE":"US","MEAN_MOTION":"15.06394415","TIME_SYSTEM":"UTC","CLASSIFICATION_TYPE":"U","RCS_SIZE":"LARGE","EPOCH":"2022-12-30T13:47:14.776512","MEAN_ANOMALY":"288.0929","REV_AT_EPOCH":"10518","ELEMENT_SET_NO":"999","SEMIMAJOR_AXIS":"6925.366","ECCENTRICITY":"0.00014640","MEAN_ELEMENT_THEORY":"SGP4","OBJECT_ID":"2021-009AP","GP_ID":"221785689","DECAY_DATE":null,"FILE":"3726810","ARG_OF_PERICENTER":"72.0220","PERIAPSIS":"546.217","OBJECT_NAME":"STARLINK-1989","BSTAR":"0.00013180000000","RA_OF_ASC_NODE":"212.0240","CENTER_NAME":"EARTH","OBJECT_TYPE":"PAYLOAD","MEAN_MOTION_DOT":"0.00001682","EPHEMERIS_TYPE":"0","NORAD_CAT_ID":"47585","LAUNCH_DATE":"2021-02-04","APOAPSIS":"548.245","REF_FRAME":"TEME","MEAN_MOTION_DDOT":"0.0000000000000","PERIOD":"95.592"},{"PERIOD":"95.593","MEAN_MOTION_DDOT":"0.0000000000000","REF_FRAME":"TEME","APOAPSIS":"548.317","LAUNCH_DATE":"2021-02-04","NORAD_CAT_ID":"47586","EPHEMERIS_TYPE":"0","OBJECT_TYPE":"PAYLOAD","MEAN_MOTION_DOT":"0.00000260","CENTER_NAME":"EARTH","RA_OF_ASC_NODE":"233.0000","OBJECT_NAME":"STARLINK-1990","BSTAR":"0.00003633800000","FILE":"3726810","ARG_OF_PERICENTER":"70.3401","PERIAPSIS":"546.188","DECAY_DATE":null,"OBJECT_ID":"2021-009AQ","GP_ID":"221786441","MEAN_ELEMENT_THEORY":"SGP4","SEMIMAJOR_AXIS":"6925.387","ECCENTRICITY":"0.00015370","ELEMENT_SET_NO":"999","REV_AT_EPOCH":"10487","MEAN_ANOMALY":"289.7754","RCS_SIZE":"LARGE","EPOCH":"2022-12-30T08:36:44.911296","CLASSIFICATION_TYPE":"U","TIME_SYSTEM":"UTC","MEAN_MOTION":"15.06387391","COUNTRY_CODE":"US","TLE_LINE1":"1 47586U 21009AQ  22364.35885314  .00000260  00000-0  36338-4 0  9991","SITE":"AFETR","INCLINATION":"53.0549","TLE_LINE2":"2 47586  53.0549 233.0000 0001537  70.3401 289.7754 15.06387391104872"},{"TLE_LINE1":"1 47587U 21009AR  22364.55327437  .00000068  00000-0  23478-4 0  9998","SITE":"AFETR","COUNTRY_CODE":"US","TLE_LINE2":"2 47587  53.0521 202.1288 0001381  92.6968 267.4179 15.06396483105327","INCLINATION":"53.0521","CLASSIFICATION_TYPE":"U","EPOCH":"2022-12-30T13:16:42.905568","RCS_SIZE":"LARGE","MEAN_MOTION":"15.06396483","TIME_SYSTEM":"UTC","ELEMENT_SET_NO":"999","MEAN_ANOMALY":"267.4179","REV_AT_EPOCH":"10532","GP_ID":"221786691","OBJECT_ID":"2021-009AR","ECCENTRICITY":"0.00013810","SEMIMAJOR_AXIS":"6925.359","MEAN_ELEMENT_THEORY":"SGP4","BSTAR":"0.00002347800000","OBJECT_NAME":"STARLINK-1991","RA_OF_ASC_NODE":"202.1288","DECAY_DATE":null,"ARG_OF_PERICENTER":"92.6968","PERIAPSIS":"546.268","FILE":"3726810","EPHEMERIS_TYPE":"0","CENTER_NAME":"EARTH","MEAN_MOTION_DOT":"0.00000068","OBJECT_TYPE":"PAYLOAD","LAUNCH_DATE":"2021-02-04","NORAD_CAT_ID":"47587","MEAN_MOTION_DDOT":"0.0000000000000","PERIOD":"95.592","APOAPSIS":"548.181","REF_FRAME":"TEME"},{"RA_OF_ASC_NODE":"213.3436","BSTAR":"-0.00001214300000","OBJECT_NAME":"STARLINK-1993","ARG_OF_PERICENTER":"83.1056","PERIAPSIS":"546.120","FILE":"3726810","DECAY_DATE":null,"EPHEMERIS_TYPE":"0","MEAN_MOTION_DOT":"-0.00000462","OBJECT_TYPE":"PAYLOAD","CENTER_NAME":"EARTH","LAUNCH_DATE":"2021-02-04","NORAD_CAT_ID":"47588","PERIOD":"95.592","MEAN_MOTION_DDOT":"0.0000000000000","REF_FRAME":"TEME","APOAPSIS":"548.284","COUNTRY_CODE":"US","SITE":"AFETR","TLE_LINE1":"1 47588U 21009AS  22364.27959456 -.00000462  00000-0 -12143-4 0  9997","TLE_LINE2":"2 47588  53.0541 213.3436 0001562  83.1056 277.0111 15.06403792105148","INCLINATION":"53.0541","EPOCH":"2022-12-30T06:42:36.969984","RCS_SIZE":"LARGE","CLASSIFICATION_TYPE":"U","TIME_SYSTEM":"UTC","MEAN_MOTION":"15.06403792","ELEMENT_SET_NO":"999","REV_AT_EPOCH":"10514","MEAN_ANOMALY":"277.0111","GP_ID":"221785940","OBJECT_ID":"2021-009AS","MEAN_ELEMENT_THEORY":"SGP4","ECCENTRICITY":"0.00015620","SEMIMAJOR_AXIS":"6925.337"},{"ECCENTRICITY":"0.00014710","SEMIMAJOR_AXIS":"6925.400","MEAN_ELEMENT_THEORY":"SGP4","GP_ID":"221786190","OBJECT_ID":"2021-009AT","MEAN_ANOMALY":"276.2032","REV_AT_EPOCH":"10518","ELEMENT_SET_NO":"999","MEAN_MOTION":"15.06383355","TIME_SYSTEM":"UTC","CLASSIFICATION_TYPE":"U","EPOCH":"2022-12-30T13:31:19.582176","RCS_SIZE":"LARGE","TLE_LINE2":"2 47589  53.0543 212.0847 0001471  83.9124 276.2032 15.06383355105185","INCLINATION":"53.0543","SITE":"AFETR","TLE_LINE1":"1 47589U 21009AT  22364.56342109  .00002128  00000-0  16181-3 0  9995","COUNTRY_CODE":"US","APOAPSIS":"548.283","REF_FRAME":"TEME","MEAN_MOTION_DDOT":"0.0000000000000","PERIOD":"95.593","NORAD_CAT_ID":"47589","LAUNCH_DATE":"2021-02-04","CENTER_NAME":"EARTH","MEAN_MOTION_DOT":"0.00002128","OBJECT_TYPE":"PAYLOAD","EPHEMERIS_TYPE":"0","DECAY_DATE":null,"ARG_OF_PERICENTER":"83.9124","PERIAPSIS":"546.246","FILE":"3726810","BSTAR":"0.00016181000000","OBJECT_NAME":"STARLINK-1994","RA_OF_ASC_NODE":"212.0847"},{"MEAN_MOTION_DOT":"-0.00001421","OBJECT_TYPE":"PAYLOAD","CENTER_NAME":"EARTH","EPHEMERIS_TYPE":"0","ARG_OF_PERICENTER":"71.4663","PERIAPSIS":"546.102","FILE":"3726810","DECAY_DATE":null,"RA_OF_ASC_NODE":"233.0210","BSTAR":"-0.00007651500000","OBJECT_NAME":"STARLINK-1995","REF_FRAME":"TEME","APOAPSIS":"548.314","PERIOD":"95.592","MEAN_MOTION_DDOT":"0.0000000000000","NORAD_CAT_ID":"47590","LAUNCH_DATE":"2021-02-04","TIME_SYSTEM":"UTC","MEAN_MOTION":"15.06401711","EPOCH":"2022-12-30T08:31:25.757472","RCS_SIZE":"LARGE","CLASSIFICATION_TYPE":"U","TLE_LINE2":"2 47590  53.0525 233.0210 0001597  71.4663 288.6499 15.06401711104879","INCLINATION":"53.0525","COUNTRY_CODE":"US","TLE_LINE1":"1 47590U 21009AU  22364.35515923 -.00001421  00000-0 -76515-4 0  9995","SITE":"AFETR","MEAN_ELEMENT_THEORY":"SGP4","ECCENTRICITY":"0.00015970","SEMIMAJOR_AXIS":"6925.343","GP_ID":"221786942","OBJECT_ID":"2021-009AU","REV_AT_EPOCH":"10487","MEAN_ANOMALY":"288.6499","ELEMENT_SET_NO":"999"},{"OBJECT_TYPE":"PAYLOAD","MEAN_MOTION_DOT":"-0.00000773","CENTER_NAME":"EARTH","EPHEMERIS_TYPE":"0","FILE":"3726810","ARG_OF_PERICENTER":"81.0279","PERIAPSIS":"546.397","DECAY_DATE":null,"RA_OF_ASC_NODE":"212.0977","OBJECT_NAME":"STARLINK-1996","BSTAR":"-0.00003300500000","REF_FRAME":"TEME","APOAPSIS":"548.150","PERIOD":"95.593","MEAN_MOTION_DDOT":"0.0000000000000","NORAD_CAT_ID":"47591","LAUNCH_DATE":"2021-02-04","TIME_SYSTEM":"UTC","MEAN_MOTION":"15.06380459","RCS_SIZE":"LARGE","EPOCH":"2022-12-30T13:26:01.781376","CLASSIFICATION_TYPE":"U","INCLINATION":"53.0538","TLE_LINE2":"2 47591  53.0538 212.0977 0001266  81.0279 279.0853 15.06380459105182","COUNTRY_CODE":"US","SITE":"AFETR","TLE_LINE1":"1 47591U 21009AV  22364.55974284 -.00000773  00000-0 -33005-4 0  9993","MEAN_ELEMENT_THEORY":"SGP4","SEMIMAJOR_AXIS":"6925.408","ECCENTRICITY":"0.00012660","OBJECT_ID":"2021-009AV","GP_ID":"221787192","REV_AT_EPOCH":"10518","MEAN_ANOMALY":"279.0853","ELEMENT_SET_NO":"999"}];
